$$SOE
2460154.500000000, A.D. 2023-Jul-29 00:00:00.0000, -3.942912625418035E+08, -1.610878988940364E+08, -1.183213784640227E+07,
2460161.500000000, A.D. 2023-Aug-05 00:00:00.0000, -3.922658026219707E+08, -1.705025512674058E+08, -1.259267436019436E+07,
2460168.500000000, A.D. 2023-Aug-12 00:00:00.0000, -3.899973524644015E+08, -1.798115882807212E+08, -1.334540738726936E+07,
2460175.500000000, A.D. 2023-Aug-19 00:00:00.0000, -3.874902708166739E+08, -1.890106041940759E+08, -1.408997133419065E+07,
2460182.500000000, A.D. 2023-Aug-26 00:00:00.0000, -3.847488873674180E+08, -1.980953334350958E+08, -1.482601192033431E+07,
2460189.500000000, A.D. 2023-Sep-02 00:00:00.0000, -3.817775023157623E+08, -2.070616432453782E+08, -1.555318558975457E+07,
2460196.500000000, A.D. 2023-Sep-09 00:00:00.0000, -3.785803861801037E+08, -2.159055267814113E+08, -1.627115896115921E+07,
2460203.500000000, A.D. 2023-Sep-16 00:00:00.0000, -3.751617796545433E+08, -2.246230967135733E+08, -1.697960833500786E+07,
2460210.500000000, A.D. 2023-Sep-23 00:00:00.0000, -3.715258930756079E+08, -2.332105790222517E+08, -1.767821927131265E+07,
2460217.500000000, A.D. 2023-Sep-30 00:00:00.0000, -3.676769058195825E+08, -2.416643057863213E+08, -1.836668610846969E+07,
2460224.500000000, A.D. 2023-Oct-07 00:00:00.0000, -3.636189679663963E+08, -2.499807074934894E+08, -1.904471125041798E+07,
2460231.500000000, A.D. 2023-Oct-14 00:00:00.0000, -3.593562031751508E+08, -2.581563081740214E+08, -1.971200458729135E+07,
2460238.500000000, A.D. 2023-Oct-21 00:00:00.0000, -3.548927095308372E+08, -2.661877217436963E+08, -2.036828321373916E+07,
2460245.500000000, A.D. 2023-Oct-28 00:00:00.0000, -3.502325597752578E+08, -2.740716472831541E+08, -2.101327112829407E+07,
2460252.500000000, A.D. 2023-Nov-04 00:00:00.0000, -3.453798021605260E+08, -2.818048640114807E+08, -2.164669886074416E+07,
2460259.500000000, A.D. 2023-Nov-11 00:00:00.0000, -3.403384617369246E+08, -2.893842265429619E+08, -2.226830309167841E+07,
2460266.500000000, A.D. 2023-Nov-18 00:00:00.0000, -3.351125418469919E+08, -2.968066604817829E+08, -2.287782628866564E+07,
2460273.500000000, A.D. 2023-Nov-25 00:00:00.0000, -3.297060257462009E+08, -3.040691583230276E+08, -2.347501636304131E+07,
2460280.500000000, A.D. 2023-Dec-02 00:00:00.0000, -3.241228783162280E+08, -3.111687756621184E+08, -2.405962634993747E+07,
2460287.500000000, A.D. 2023-Dec-09 00:00:00.0000, -3.183670477877052E+08, -3.181026277628353E+08, -2.463141412270135E+07,
2460294.500000000, A.D. 2023-Dec-16 00:00:00.0000, -3.124424671802489E+08, -3.248678864631413E+08, -2.519014216635767E+07,
2460301.500000000, A.D. 2023-Dec-23 00:00:00.0000, -3.063530551073331E+08, -3.314617767236371E+08, -2.573557738532698E+07,
2460308.500000000, A.D. 2023-Dec-30 00:00:00.0000, -3.001027172826093E+08, -3.378815717619177E+08, -2.626749073624608E+07,
2460315.500000000, A.D. 2024-Jan-06 00:00:00.0000, -2.936953504968379E+08, -3.441245891269833E+08, -2.678565671596010E+07,
2460322.500000000, A.D. 2024-Jan-13 00:00:00.0000, -2.871348458911236E+08, -3.501881895157048E+08, -2.728985314335035E+07,
2460329.500000000, A.D. 2024-Jan-20 00:00:00.0000, -2.804250903031523E+08, -3.560697752416065E+08, -2.777986109505594E+07,
2460336.500000000, A.D. 2024-Jan-27 00:00:00.0000, -2.735699677150927E+08, -3.617667876968309E+08, -2.825546475528646E+07,
2460343.500000000, A.D. 2024-Feb-03 00:00:00.0000, -2.665733612301438E+08, -3.672767047482625E+08, -2.871645121734099E+07,
2460350.500000000, A.D. 2024-Feb-10 00:00:00.0000, -2.594391552978522E+08, -3.725970383523096E+08, -2.916261028550713E+07,
2460357.500000000, A.D. 2024-Feb-17 00:00:00.0000, -2.521712380469668E+08, -3.777253323762401E+08, -2.959373428914237E+07,
2460364.500000000, A.D. 2024-Feb-24 00:00:00.0000, -2.447735036889201E+08, -3.826591606096305E+08, -3.000961791111314E+07,
2460371.500000000, A.D. 2024-Mar-02 00:00:00.0000, -2.372498549637981E+08, -3.873961249980328E+08, -3.041005803621587E+07,
2460378.500000000, A.D. 2024-Mar-09 00:00:00.0000, -2.296042054928038E+08, -3.919338541611543E+08, -3.079485363768494E+07,
2460385.500000000, A.D. 2024-Mar-16 00:00:00.0000, -2.218404816452519E+08, -3.962700019969696E+08, -3.116380572198424E+07,
2460392.500000000, A.D. 2024-Mar-23 00:00:00.0000, -2.139626240267362E+08, -4.004022452606357E+08, -3.151671723160622E+07,
2460399.500000000, A.D. 2024-Mar-30 00:00:00.0000, -2.059745908317805E+08, -4.043282801424740E+08, -3.185339270224264E+07,
2460406.500000000, A.D. 2024-Apr-06 00:00:00.0000, -1.978803628063729E+08, -4.080458212111569E+08, -3.217363797289181E+07,
2460413.500000000, A.D. 2024-Apr-13 00:00:00.0000, -1.896839462715790E+08, -4.115526018863474E+08, -3.247726020636156E+07,
2460420.500000000, A.D. 2024-Apr-20 00:00:00.0000, -1.813893751638568E+08, -4.148463737652323E+08, -3.276406791414395E+07,
2460427.500000000, A.D. 2024-Apr-27 00:00:00.0000, -1.730007136126485E+08, -4.179249053649104E+08, -3.303387089234453E+07,
2460434.500000000, A.D. 2024-May-04 00:00:00.0000, -1.645220589707886E+08, -4.207859809846401E+08, -3.328648013415533E+07,
2460441.500000000, A.D. 2024-May-11 00:00:00.0000, -1.559575450627992E+08, -4.234273997908083E+08, -3.352170774905214E+07,
2460448.500000000, A.D. 2024-May-18 00:00:00.0000, -1.473113455726109E+08, -4.258469751049103E+08, -3.373936689454630E+07,
2460455.500000000, A.D. 2024-May-25 00:00:00.0000, -1.385876775500048E+08, -4.280425339044930E+08, -3.393927172345179E+07,
2460462.500000000, A.D. 2024-Jun-01 00:00:00.0000, -1.297908049804705E+08, -4.300119165978323E+08, -3.412123735689235E+07,
2460469.500000000, A.D. 2024-Jun-08 00:00:00.0000, -1.209250421767929E+08, -4.317529770989259E+08, -3.428507990747184E+07,
2460476.500000000, A.D. 2024-Jun-15 00:00:00.0000, -1.119947565973449E+08, -4.332635826618494E+08, -3.443061654462883E+07,
2460483.500000000, A.D. 2024-Jun-22 00:00:00.0000, -1.030043721005846E+08, -4.345416123040673E+08, -3.455766541390288E+07,
2460490.500000000, A.D. 2024-Jun-29 00:00:00.0000, -9.395837476116213E+07, -4.355849556448884E+08, -3.466604536442149E+07,
2460497.500000000, A.D. 2024-Jul-06 00:00:00.0000, -8.486131860617507E+07, -4.363915146378179E+08, -3.475557592965248E+07,
2460504.500000000, A.D. 2024-Jul-13 00:00:00.0000, -7.571782932706046E+07, -4.369592053830974E+08, -3.482607751024249E+07,
2460511.500000000, A.D. 2024-Jul-20 00:00:00.0000, -6.653260795870674E+07, -4.372859588827240E+08, -3.487737148379928E+07,
2460518.500000000, A.D. 2024-Jul-27 00:00:00.0000, -5.731043518790737E+07, -4.373697217082759E+08, -3.490928026075178E+07,
2460525.500000000, A.D. 2024-Aug-03 00:00:00.0000, -4.805617602421098E+07, -4.372084569676844E+08, -3.492162734293672E+07,
2460532.500000000, A.D. 2024-Aug-10 00:00:00.0000, -3.877478467297050E+07, -4.368001455871780E+08, -3.491423740157700E+07,
2460539.500000000, A.D. 2024-Aug-17 00:00:00.0000, -2.947130956814089E+07, -4.361427878996015E+08, -3.488693637850317E+07,
2460546.500000000, A.D. 2024-Aug-24 00:00:00.0000, -2.015089854137095E+07, -4.352344055762860E+08, -3.483955161651587E+07,
2460553.500000000, A.D. 2024-Aug-31 00:00:00.0000, -1.081880401616957E+07, -4.340730439810883E+08, -3.477191203622136E+07,
2460560.500000000, A.D. 2024-Sep-07 00:00:00.0000, -1.480387866229069E+06, -4.326567748392716E+08, -3.468384838434958E+07,
2460567.500000000, A.D. 2024-Sep-14 00:00:00.0000, 7.858874142698376E+06, -4.309836982459789E+08, -3.457519348187050E+07,
2460574.500000000, A.D. 2024-Sep-21 00:00:00.0000, 1.719338629397053E+07, -4.290519436233354E+08, -3.444578225400415E+07,
2460581.500000000, A.D. 2024-Sep-28 00:00:00.0000, 2.651742475295619E+07, -4.268596728761306E+08, -3.429545176311713E+07,
2460588.500000000, A.D. 2024-Oct-05 00:00:00.0000, 3.582513095854788E+07, -4.244050857691054E+08, -3.412404158303365E+07,
2460595.500000000, A.D. 2024-Oct-12 00:00:00.0000, 4.511050621019745E+07, -4.216864245727579E+08, -3.393139424020374E+07,
2460602.500000000, A.D. 2024-Oct-19 00:00:00.0000, 5.436740569853649E+07, -4.187019782762574E+08, -3.371735558528352E+07,
2460609.500000000, A.D. 2024-Oct-26 00:00:00.0000, 6.358953194916561E+07, -4.154500871987957E+08, -3.348177516000685E+07,
2460616.500000000, A.D. 2024-Nov-02 00:00:00.0000, 7.277042794152604E+07, -4.119291481822047E+08, -3.322450659803325E+07,
2460623.500000000, A.D. 2024-Nov-09 00:00:00.0000, 8.190347000528599E+07, -4.081376203834305E+08, -3.294540807040685E+07,
2460630.500000000, A.D. 2024-Nov-16 00:00:00.0000, 9.098186052682686E+07, -4.040740317095022E+08, -3.264434278169173E+07,
2460637.500000000, A.D. 2024-Nov-23 00:00:00.0000, 9.999862052117333E+07, -3.997369859906340E+08, -3.232117952896661E+07,
2460644.500000000, A.D. 2024-Nov-30 00:00:00.0000, 1.089465822886437E+08, -3.951251709829635E+08, -3.197579335014495E+07,
2460651.500000000, A.D. 2024-Dec-07 00:00:00.0000, 1.178183825895783E+08, -3.902373668324729E+08, -3.160806626969674E+07,
2460658.500000000, A.D. 2024-Dec-14 00:00:00.0000, 1.266064556657852E+08, -3.850724538312116E+08, -3.121788798272276E+07,
2460665.500000000, A.D. 2024-Dec-21 00:00:00.0000, 1.353030238115621E+08, -3.796294207636765E+08, -3.080515637046172E+07,
2460672.500000000, A.D. 2024-Dec-28 00:00:00.0000, 1.439000874942426E+08, -3.739073768702919E+08, -3.036977827536961E+07,
2460679.500000000, A.D. 2025-Jan-04 00:00:00.0000, 1.523894176561075E+08, -3.679055651172149E+08, -2.991167058505498E+07,
2460686.500000000, A.D. 2025-Jan-11 00:00:00.0000, 1.607625484172850E+08, -3.616233751838297E+08, -2.943076132798380E+07,
2460693.500000000, A.D. 2025-Jan-18 00:00:00.0000, 1.690107693104055E+08, -3.550603571616133E+08, -2.892699077778026E+07,
2460700.500000000, A.D. 2025-Jan-25 00:00:00.0000, 1.771251173466106E+08, -3.482162365173106E+08, -2.840031263338509E+07,
2460707.500000000, A.D. 2025-Feb-01 00:00:00.0000, 1.850963691680694E+08, -3.410909304326863E+08, -2.785069530137366E+07,
2460714.500000000, A.D. 2025-Feb-08 00:00:00.0000, 1.929150334215103E+08, -3.336845655866018E+08, -2.727812329094617E+07,
$$EOE